LANDSAT 9               
1 49260U 21088A   24219.78031777  .00000875  00000+0  20427-3 0  9995
2 49260  98.2293 288.7488 0001365  89.4067 270.7288 14.57113507152062
